[{"OBJECT_NAME":"STARLINK-32304","OBJECT_ID":"2024-152U","EPOCH":"2025-12-11T05:25:37.479936","MEAN_MOTION":15.30196346,"ECCENTRICITY":0.00012449,"INCLINATION":53.1622,"RA_OF_ASC_NODE":319.5488,"ARG_OF_PERICENTER":82.8912,"MEAN_ANOMALY":277.2231,"EPHEMERIS_TYPE":0,"CLASSIFICATION_TYPE":"U","NORAD_CAT_ID":60738,"ELEMENT_SET_NO":999,"REV_AT_EPOCH":7330,"BSTAR":1.8505053e-5,"MEAN_MOTION_DOT":1.89e-6,"MEAN_MOTION_DDOT":0},{"OBJECT_NAME":"STARLINK-32235","OBJECT_ID":"2024-152V","EPOCH":"2025-12-11T05:21:03.909888","MEAN_MOTION":15.30197019,"ECCENTRICITY":0.00012615,"INCLINATION":53.1608,"RA_OF_ASC_NODE":319.5295,"ARG_OF_PERICENTER":90.2282,"MEAN_ANOMALY":269.8863,"EPHEMERIS_TYPE":0,"CLASSIFICATION_TYPE":"U","NORAD_CAT_ID":60739,"ELEMENT_SET_NO":999,"REV_AT_EPOCH":7325,"BSTAR":4.5437269e-5,"MEAN_MOTION_DOT":9.87e-6,"MEAN_MOTION_DDOT":0},{"OBJECT_NAME":"STARLINK-32315","OBJECT_ID":"2024-152W","EPOCH":"2025-12-11T05:16:30.499680","MEAN_MOTION":15.30199321,"ECCENTRICITY":0.00012573,"INCLINATION":53.1615,"RA_OF_ASC_NODE":319.511,"ARG_OF_PERICENTER":86.5259,"MEAN_ANOMALY":273.5886,"EPHEMERIS_TYPE":0,"CLASSIFICATION_TYPE":"U","NORAD_CAT_ID":60740,"ELEMENT_SET_NO":999,"REV_AT_EPOCH":7317,"BSTAR":-2.7270705e-5,"MEAN_MOTION_DOT":-1.167e-5,"MEAN_MOTION_DDOT":0},{"OBJECT_NAME":"STARLINK-11242 [DTC]","OBJECT_ID":"2024-154A","EPOCH":"2025-12-11T00:50:19.762944","MEAN_MOTION":15.69706112,"ECCENTRICITY":0.00012099,"INCLINATION":53.161,"RA_OF_ASC_NODE":208.047,"ARG_OF_PERICENTER":84.7084,"MEAN_ANOMALY":275.4072,"EPHEMERIS_TYPE":0,"CLASSIFICATION_TYPE":"U","NORAD_CAT_ID":60903,"ELEMENT_SET_NO":999,"REV_AT_EPOCH":7459,"BSTAR":-3.152221e-6,"MEAN_MOTION_DOT":-9.7e-6,"MEAN_MOTION_DDOT":0},{"OBJECT_NAME":"STARLINK-11256 [DTC]","OBJECT_ID":"2024-154B","EPOCH":"2025-12-11T00:43:15.640896","MEAN_MOTION":15.69709707,"ECCENTRICITY":0.00011898,"INCLINATION":53.1591,"RA_OF_ASC_NODE":208.0147,"ARG_OF_PERICENTER":94.128,"MEAN_ANOMALY":265.9874,"EPHEMERIS_TYPE":0,"CLASSIFICATION_TYPE":"U","NORAD_CAT_ID":60904,"ELEMENT_SET_NO":999,"REV_AT_EPOCH":7459,"BSTAR":1.550352e-6,"MEAN_MOTION_DOT":-4.01e-6,"MEAN_MOTION_DDOT":0},{"OBJECT_NAME":"STARLINK-11159 [DTC]","OBJECT_ID":"2024-154C","EPOCH":"2025-12-10T21:25:55.244928","MEAN_MOTION":15.69683967,"ECCENTRICITY":0.0001203,"INCLINATION":53.1605,"RA_OF_ASC_NODE":209.31,"ARG_OF_PERICENTER":106.4181,"MEAN_ANOMALY":253.6969,"EPHEMERIS_TYPE":0,"CLASSIFICATION_TYPE":"U","NORAD_CAT_ID":60905,"ELEMENT_SET_NO":999,"REV_AT_EPOCH":7456,"BSTAR":4.0895e-5,"MEAN_MOTION_DOT":4.363e-5,"MEAN_MOTION_DDOT":0},{"OBJECT_NAME":"STARLINK-11264 [DTC]","OBJECT_ID":"2024-154D","EPOCH":"2025-12-11T00:22:13.299744","MEAN_MOTION":15.69708198,"ECCENTRICITY":0.00011508,"INCLINATION":53.1595,"RA_OF_ASC_NODE":208.6515,"ARG_OF_PERICENTER":71.2667,"MEAN_ANOMALY":288.8476,"EPHEMERIS_TYPE":0,"CLASSIFICATION_TYPE":"U","NORAD_CAT_ID":60906,"ELEMENT_SET_NO":999,"REV_AT_EPOCH":7458,"BSTAR":-2.891897e-6,"MEAN_MOTION_DOT":-9.39e-6,"MEAN_MOTION_DDOT":0},{"OBJECT_NAME":"STARLINK-11226 [DTC]","OBJECT_ID":"2024-154E","EPOCH":"2025-12-10T01:19:53.610240","MEAN_MOTION":15.69711776,"ECCENTRICITY":0.00011728,"INCLINATION":53.1603,"RA_OF_ASC_NODE":213.327,"ARG_OF_PERICENTER":81.6005,"MEAN_ANOMALY":278.5146,"EPHEMERIS_TYPE":0,"CLASSIFICATION_TYPE":"U","NORAD_CAT_ID":60907,"ELEMENT_SET_NO":999,"REV_AT_EPOCH":7443,"BSTAR":3.012294e-6,"MEAN_MOTION_DOT":-2.24e-6,"MEAN_MOTION_DDOT":0},{"OBJECT_NAME":"STARLINK-11229 [DTC]","OBJECT_ID":"2024-154F","EPOCH":"2025-12-10T14:57:59.402016","MEAN_MOTION":15.69702965,"ECCENTRICITY":8.16e-5,"INCLINATION":53.1589,"RA_OF_ASC_NODE":210.469,"ARG_OF_PERICENTER":89.5157,"MEAN_ANOMALY":270.5954,"EPHEMERIS_TYPE":0,"CLASSIFICATION_TYPE":"U","NORAD_CAT_ID":60908,"ELEMENT_SET_NO":999,"REV_AT_EPOCH":7452,"BSTAR":-5.7159e-7,"MEAN_MOTION_DOT":-6.57e-6,"MEAN_MOTION_DDOT":0},{"OBJECT_NAME":"STARLINK-11265 [DTC]","OBJECT_ID":"2024-154G","EPOCH":"2025-12-11T00:36:21.047040","MEAN_MOTION":15.69703359,"ECCENTRICITY":0.00015444,"INCLINATION":53.1603,"RA_OF_ASC_NODE":208.7149,"ARG_OF_PERICENTER":92.6254,"MEAN_ANOMALY":267.4941,"EPHEMERIS_TYPE":0,"CLASSIFICATION_TYPE":"U","NORAD_CAT_ID":60909,"ELEMENT_SET_NO":999,"REV_AT_EPOCH":7458,"BSTAR":-5.364228e-6,"MEAN_MOTION_DOT":-1.239e-5,"MEAN_MOTION_DDOT":0},{"OBJECT_NAME":"STARLINK-11250 [DTC]","OBJECT_ID":"2024-154H","EPOCH":"2025-12-11T00:01:01.788960","MEAN_MOTION":15.69703983,"ECCENTRICITY":9.549e-5,"INCLINATION":53.1598,"RA_OF_ASC_NODE":208.5501,"ARG_OF_PERICENTER":97.2126,"MEAN_ANOMALY":262.9,"EPHEMERIS_TYPE":0,"CLASSIFICATION_TYPE":"U","NORAD_CAT_ID":60910,"ELEMENT_SET_NO":999,"REV_AT_EPOCH":7458,"BSTAR":-7.139392e-6,"MEAN_MOTION_DOT":-1.453e-5,"MEAN_MOTION_DDOT":0},{"OBJECT_NAME":"STARLINK-11190 [DTC]","OBJECT_ID":"2024-154J","EPOCH":"2025-12-10T08:37:06.771360","MEAN_MOTION":15.69716153,"ECCENTRICITY":7.278e-5,"INCLINATION":53.1594,"RA_OF_ASC_NODE":211.6574,"ARG_OF_PERICENTER":86.5258,"MEAN_ANOMALY":273.5843,"EPHEMERIS_TYPE":0,"CLASSIFICATION_TYPE":"U","NORAD_CAT_ID":60911,"ELEMENT_SET_NO":999,"REV_AT_EPOCH":7447,"BSTAR":2.149153e-6,"MEAN_MOTION_DOT":-3.28e-6,"MEAN_MOTION_DDOT":0},{"OBJECT_NAME":"STARLINK-11225 [DTC]","OBJECT_ID":"2024-154K","EPOCH":"2025-12-10T08:30:03.330144","MEAN_MOTION":15.6970698,"ECCENTRICITY":8.233e-5,"INCLINATION":53.159,"RA_OF_ASC_NODE":211.6238,"ARG_OF_PERICENTER":91.8708,"MEAN_ANOMALY":268.2405,"EPHEMERIS_TYPE":0,"CLASSIFICATION_TYPE":"U","NORAD_CAT_ID":60912,"ELEMENT_SET_NO":999,"REV_AT_EPOCH":7447,"BSTAR":8.1011e-6,"MEAN_MOTION_DOT":3.93e-6,"MEAN_MOTION_DDOT":0},{"OBJECT_NAME":"STARLINK-11273 [DTC]","OBJECT_ID":"2024-154L","EPOCH":"2025-12-11T01:11:31.025760","MEAN_MOTION":15.6970874,"ECCENTRICITY":0.00010676,"INCLINATION":53.1612,"RA_OF_ASC_NODE":208.1398,"ARG_OF_PERICENTER":106.7321,"MEAN_ANOMALY":253.3814,"EPHEMERIS_TYPE":0,"CLASSIFICATION_TYPE":"U","NORAD_CAT_ID":60913,"ELEMENT_SET_NO":999,"REV_AT_EPOCH":7458,"BSTAR":-2.955072e-6,"MEAN_MOTION_DOT":-9.46e-6,"MEAN_MOTION_DDOT":0},{"OBJECT_NAME":"STARLINK-11248 [DTC]","OBJECT_ID":"2024-154M","EPOCH":"2025-12-11T08:00:01.999872","MEAN_MOTION":15.91181767,"ECCENTRICITY":0.00062435,"INCLINATION":53.1412,"RA_OF_ASC_NODE":203.0695,"ARG_OF_PERICENTER":184.9473,"MEAN_ANOMALY":313.3294,"EPHEMERIS_TYPE":0,"CLASSIFICATION_TYPE":"U","NORAD_CAT_ID":60914,"ELEMENT_SET_NO":999,"REV_AT_EPOCH":595,"BSTAR":0.0013131207,"MEAN_MOTION_DOT":0.00425018,"MEAN_MOTION_DDOT":7.9716922e-5},{"OBJECT_NAME":"STARLINK-11271 [DTC]","OBJECT_ID":"2024-154N","EPOCH":"2025-12-11T00:57:22.275360","MEAN_MOTION":15.69744913,"ECCENTRICITY":9.906e-5,"INCLINATION":53.1582,"RA_OF_ASC_NODE":208.0743,"ARG_OF_PERICENTER":100.6773,"MEAN_ANOMALY":259.4357,"EPHEMERIS_TYPE":0,"CLASSIFICATION_TYPE":"U","NORAD_CAT_ID":60915,"ELEMENT_SET_NO":999,"REV_AT_EPOCH":7458,"BSTAR":-6.5270392e-5,"MEAN_MOTION_DOT":-8.499e-5,"MEAN_MOTION_DDOT":0},{"OBJECT_NAME":"STARLINK-32371","OBJECT_ID":"2024-154P","EPOCH":"2025-12-11T05:53:02.718240","MEAN_MOTION":15.30182777,"ECCENTRICITY":0.00012053,"INCLINATION":53.1614,"RA_OF_ASC_NODE":334.6614,"ARG_OF_PERICENTER":98.691,"MEAN_ANOMALY":261.4228,"EPHEMERIS_TYPE":0,"CLASSIFICATION_TYPE":"U","NORAD_CAT_ID":60916,"ELEMENT_SET_NO":999,"REV_AT_EPOCH":7279,"BSTAR":-4.3099507e-5,"MEAN_MOTION_DOT":-1.635e-5,"MEAN_MOTION_DDOT":0},{"OBJECT_NAME":"STARLINK-32369","OBJECT_ID":"2024-154Q","EPOCH":"2025-12-11T06:59:44.238336","MEAN_MOTION":15.3018622,"ECCENTRICITY":0.00017507,"INCLINATION":53.1613,"RA_OF_ASC_NODE":334.2474,"ARG_OF_PERICENTER":84.8388,"MEAN_ANOMALY":275.2812,"EPHEMERIS_TYPE":0,"CLASSIFICATION_TYPE":"U","NORAD_CAT_ID":60917,"ELEMENT_SET_NO":999,"REV_AT_EPOCH":7280,"BSTAR":-9.917721e-6,"MEAN_MOTION_DOT":-6.53e-6,"MEAN_MOTION_DDOT":0},{"OBJECT_NAME":"STARLINK-32317","OBJECT_ID":"2024-154R","EPOCH":"2025-12-11T06:29:30.606432","MEAN_MOTION":15.30193569,"ECCENTRICITY":0.00012024,"INCLINATION":53.1609,"RA_OF_ASC_NODE":334.8248,"ARG_OF_PERICENTER":77.9295,"MEAN_ANOMALY":282.184,"EPHEMERIS_TYPE":0,"CLASSIFICATION_TYPE":"U","NORAD_CAT_ID":60918,"ELEMENT_SET_NO":999,"REV_AT_EPOCH":7279,"BSTAR":1.6659372e-5,"MEAN_MOTION_DOT":1.34e-6,"MEAN_MOTION_DDOT":0},{"OBJECT_NAME":"STARLINK-32367","OBJECT_ID":"2024-154S","EPOCH":"2025-12-11T05:08:58.498944","MEAN_MOTION":15.30189641,"ECCENTRICITY":0.00012347,"INCLINATION":53.1622,"RA_OF_ASC_NODE":334.4719,"ARG_OF_PERICENTER":93.2835,"MEAN_ANOMALY":266.8307,"EPHEMERIS_TYPE":0,"CLASSIFICATION_TYPE":"U","NORAD_CAT_ID":60919,"ELEMENT_SET_NO":999,"REV_AT_EPOCH":7279,"BSTAR":-2.9058171e-5,"MEAN_MOTION_DOT":-1.219e-5,"MEAN_MOTION_DDOT":0},{"OBJECT_NAME":"STARLINK-32345","OBJECT_ID":"2024-154T","EPOCH":"2025-12-11T06:31:01.758432","MEAN_MOTION":15.30190586,"ECCENTRICITY":0.00013949,"INCLINATION":53.1635,"RA_OF_ASC_NODE":334.8301,"ARG_OF_PERICENTER":88.139,"MEAN_ANOMALY":271.9771,"EPHEMERIS_TYPE":0,"CLASSIFICATION_TYPE":"U","NORAD_CAT_ID":60920,"ELEMENT_SET_NO":999,"REV_AT_EPOCH":7280,"BSTAR":9.5693238e-5,"MEAN_MOTION_DOT":2.475e-5,"MEAN_MOTION_DDOT":0},{"OBJECT_NAME":"STARLINK-32356","OBJECT_ID":"2024-154U","EPOCH":"2025-12-11T07:13:24.903552","MEAN_MOTION":15.30192076,"ECCENTRICITY":0.000138,"INCLINATION":53.1623,"RA_OF_ASC_NODE":334.2963,"ARG_OF_PERICENTER":93.9061,"MEAN_ANOMALY":266.2097,"EPHEMERIS_TYPE":0,"CLASSIFICATION_TYPE":"U","NORAD_CAT_ID":60921,"ELEMENT_SET_NO":999,"REV_AT_EPOCH":7281,"BSTAR":1.4570067e-5,"MEAN_MOTION_DOT":7.2e-7,"MEAN_MOTION_DDOT":0},{"OBJECT_NAME":"STARLINK-32274","OBJECT_ID":"2024-154V","EPOCH":"2025-12-11T06:03:40.484160","MEAN_MOTION":15.30191457,"ECCENTRICITY":0.00013016,"INCLINATION":53.1615,"RA_OF_ASC_NODE":334.7066,"ARG_OF_PERICENTER":92.1872,"MEAN_ANOMALY":267.9277,"EPHEMERIS_TYPE":0,"CLASSIFICATION_TYPE":"U","NORAD_CAT_ID":60922,"ELEMENT_SET_NO":999,"REV_AT_EPOCH":7280,"BSTAR":2.8515423e-5,"MEAN_MOTION_DOT":4.85e-6,"MEAN_MOTION_DDOT":0}]
